[
  {
    "OBJECT_NAME": "STARLINK-3255",
    "OBJECT_ID": "21125AX",
    "EPOCH": "2025-11-11T03:33:18.735264",
    "MEAN_MOTION": 15.58361997,
    "ECCENTRICITY": 0.000194,
    "INCLINATION": 53.2078,
    "RA_OF_ASC_NODE": 2.9924,
    "ARG_OF_PERICENTER": 38.1404,
    "MEAN_ANOMALY": 321.9747,
    "EPHEMERIS_TYPE": 0,
    "CLASSIFICATION_TYPE": "U",
    "NORAD_CAT_ID": 50201,
    "ELEMENT_SET_NO": 999,
    "REV_AT_EPOCH": 21952,
    "BSTAR": 0.0006222100000000001,
    "MEAN_MOTION_DOT": 0.00047909,
    "MEAN_MOTION_DDOT": 0.0,
    "TLE_LINE1": "1 50201U 21125AX  25315.14813351  .00047909  00000+0  62221-3 0  9995",
    "TLE_LINE2": "2 50201  53.2078   2.9924 0001940  38.1404 321.9747 15.58361997219521",
    "COMMENT": "Grouped by shell and plane from TLE"
  },
  {
    "OBJECT_NAME": "STARLINK-11223 [DTC]",
    "OBJECT_ID": "24133G",
    "EPOCH": "2025-11-11T07:26:18.904128",
    "MEAN_MOTION": 15.69721474,
    "ECCENTRICITY": 0.0001117,
    "INCLINATION": 53.1576,
    "RA_OF_ASC_NODE": 9.6119,
    "ARG_OF_PERICENTER": 95.3048,
    "MEAN_ANOMALY": 264.8097,
    "EPHEMERIS_TYPE": 0,
    "CLASSIFICATION_TYPE": "U",
    "NORAD_CAT_ID": 60307,
    "ELEMENT_SET_NO": 999,
    "REV_AT_EPOCH": 7514,
    "BSTAR": 2.6043e-05,
    "MEAN_MOTION_DOT": 2.569e-05,
    "MEAN_MOTION_DDOT": 0.0,
    "TLE_LINE1": "1 60307U 24133G   25315.30994102  .00002569  00000+0  26043-4 0  9993",
    "TLE_LINE2": "2 60307  53.1576   9.6119 0001117  95.3048 264.8097 15.69721474 75149",
    "COMMENT": "Grouped by shell and plane from TLE"
  },
  {
    "OBJECT_NAME": "STARLINK-11192 [DTC]",
    "OBJECT_ID": "24133H",
    "EPOCH": "2025-11-11T07:33:22.612320",
    "MEAN_MOTION": 15.69707645,
    "ECCENTRICITY": 7.13e-05,
    "INCLINATION": 53.1578,
    "RA_OF_ASC_NODE": 9.6461,
    "ARG_OF_PERICENTER": 75.3977,
    "MEAN_ANOMALY": 284.712,
    "EPHEMERIS_TYPE": 0,
    "CLASSIFICATION_TYPE": "U",
    "NORAD_CAT_ID": 60308,
    "ELEMENT_SET_NO": 999,
    "REV_AT_EPOCH": 7514,
    "BSTAR": 8.966700000000001e-05,
    "MEAN_MOTION_DOT": 0.00010287,
    "MEAN_MOTION_DDOT": 0.0,
    "TLE_LINE1": "1 60308U 24133H   25315.31484505  .00010287  00000+0  89667-4 0  9993",
    "TLE_LINE2": "2 60308  53.1578   9.6461 0000713  75.3977 284.7120 15.69707645 75144",
    "COMMENT": "Grouped by shell and plane from TLE"
  },
  {
    "OBJECT_NAME": "STARLINK-11200 [DTC]",
    "OBJECT_ID": "24133K",
    "EPOCH": "2025-11-11T07:12:11.100672",
    "MEAN_MOTION": 15.69711348,
    "ECCENTRICITY": 0.0001161,
    "INCLINATION": 53.1578,
    "RA_OF_ASC_NODE": 9.5452,
    "ARG_OF_PERICENTER": 73.3883,
    "MEAN_ANOMALY": 286.7262,
    "EPHEMERIS_TYPE": 0,
    "CLASSIFICATION_TYPE": "U",
    "NORAD_CAT_ID": 60310,
    "ELEMENT_SET_NO": 999,
    "REV_AT_EPOCH": 7514,
    "BSTAR": 0.0,
    "MEAN_MOTION_DOT": -1.485e-05,
    "MEAN_MOTION_DDOT": 0.0,
    "TLE_LINE1": "1 60310U 24133K   25315.30012848 -.00001485  00000+0 -74013-5 0  9994",
    "TLE_LINE2": "2 60310  53.1578   9.5452 0001161  73.3883 286.7262 15.69711348 75142",
    "COMMENT": "Grouped by shell and plane from TLE"
  },
  {
    "OBJECT_NAME": "STARLINK-11550 [DTC]",
    "OBJECT_ID": "25035A",
    "EPOCH": "2025-11-11T04:09:17.476416",
    "MEAN_MOTION": 15.7102365,
    "ECCENTRICITY": 0.0001334,
    "INCLINATION": 42.9992,
    "RA_OF_ASC_NODE": 9.5131,
    "ARG_OF_PERICENTER": 222.3838,
    "MEAN_ANOMALY": 137.6927,
    "EPHEMERIS_TYPE": 0,
    "CLASSIFICATION_TYPE": "U",
    "NORAD_CAT_ID": 63052,
    "ELEMENT_SET_NO": 999,
    "REV_AT_EPOCH": 4258,
    "BSTAR": 0.002234,
    "MEAN_MOTION_DOT": 0.00299059,
    "MEAN_MOTION_DDOT": 0.0,
    "TLE_LINE1": "1 63052U 25035A   25315.17311894  .00299059  00000+0  22340-2 0  9997",
    "TLE_LINE2": "2 63052  42.9992   9.5131 0001334 222.3838 137.6927 15.71023650 42585",
    "COMMENT": "Grouped by shell and plane from TLE"
  },
  {
    "OBJECT_NAME": "STARLINK-11563 [DTC]",
    "OBJECT_ID": "25035B",
    "EPOCH": "2025-11-11T07:20:03.220512",
    "MEAN_MOTION": 15.7092398,
    "ECCENTRICITY": 0.0001216,
    "INCLINATION": 42.9998,
    "RA_OF_ASC_NODE": 8.7892,
    "ARG_OF_PERICENTER": 246.3301,
    "MEAN_ANOMALY": 113.7439,
    "EPHEMERIS_TYPE": 0,
    "CLASSIFICATION_TYPE": "U",
    "NORAD_CAT_ID": 63053,
    "ELEMENT_SET_NO": 999,
    "REV_AT_EPOCH": 4249,
    "BSTAR": 0.0010785,
    "MEAN_MOTION_DOT": 0.00140801,
    "MEAN_MOTION_DDOT": 0.0,
    "TLE_LINE1": "1 63053U 25035B   25315.30559283  .00140801  00000+0  10785-2 0  9999",
    "TLE_LINE2": "2 63053  42.9998   8.7892 0001216 246.3301 113.7439 15.70923980 42494",
    "COMMENT": "Grouped by shell and plane from TLE"
  },
  {
    "OBJECT_NAME": "STARLINK-11347 [DTC]",
    "OBJECT_ID": "25035C",
    "EPOCH": "2025-11-11T05:02:48.804576",
    "MEAN_MOTION": 15.70862941,
    "ECCENTRICITY": 0.0005148,
    "INCLINATION": 43.0,
    "RA_OF_ASC_NODE": 9.8108,
    "ARG_OF_PERICENTER": 298.2913,
    "MEAN_ANOMALY": 61.7435,
    "EPHEMERIS_TYPE": 0,
    "CLASSIFICATION_TYPE": "U",
    "NORAD_CAT_ID": 63054,
    "ELEMENT_SET_NO": 999,
    "REV_AT_EPOCH": 4258,
    "BSTAR": 0.0028905,
    "MEAN_MOTION_DOT": 0.00388803,
    "MEAN_MOTION_DDOT": 0.0,
    "TLE_LINE1": "1 63054U 25035C   25315.21028709  .00388803  00000+0  28905-2 0  9993",
    "TLE_LINE2": "2 63054  43.0000   9.8108 0005148 298.2913  61.7435 15.70862941 42583",
    "COMMENT": "Grouped by shell and plane from TLE"
  },
  {
    "OBJECT_NAME": "STARLINK-11558 [DTC]",
    "OBJECT_ID": "25035D",
    "EPOCH": "2025-11-11T03:46:21.292032",
    "MEAN_MOTION": 15.71015011,
    "ECCENTRICITY": 0.0001287,
    "INCLINATION": 42.9981,
    "RA_OF_ASC_NODE": 9.383,
    "ARG_OF_PERICENTER": 183.6832,
    "MEAN_ANOMALY": 176.4026,
    "EPHEMERIS_TYPE": 0,
    "CLASSIFICATION_TYPE": "U",
    "NORAD_CAT_ID": 63055,
    "ELEMENT_SET_NO": 999,
    "REV_AT_EPOCH": 4247,
    "BSTAR": 0.0020176,
    "MEAN_MOTION_DOT": 0.00268967,
    "MEAN_MOTION_DDOT": 0.0,
    "TLE_LINE1": "1 63055U 25035D   25315.15719088  .00268967  00000+0  20176-2 0  9994",
    "TLE_LINE2": "2 63055  42.9981   9.3830 0001287 183.6832 176.4026 15.71015011 42471",
    "COMMENT": "Grouped by shell and plane from TLE"
  },
  {
    "OBJECT_NAME": "STARLINK-11392 [DTC]",
    "OBJECT_ID": "25035E",
    "EPOCH": "2025-11-11T04:47:31.171776",
    "MEAN_MOTION": 15.70867149,
    "ECCENTRICITY": 0.0001299,
    "INCLINATION": 42.9998,
    "RA_OF_ASC_NODE": 9.7245,
    "ARG_OF_PERICENTER": 307.6391,
    "MEAN_ANOMALY": 52.4359,
    "EPHEMERIS_TYPE": 0,
    "CLASSIFICATION_TYPE": "U",
    "NORAD_CAT_ID": 63056,
    "ELEMENT_SET_NO": 999,
    "REV_AT_EPOCH": 4258,
    "BSTAR": 0.0020610999999999997,
    "MEAN_MOTION_DOT": 0.00273213,
    "MEAN_MOTION_DDOT": 0.0,
    "TLE_LINE1": "1 63056U 25035E   25315.19966634  .00273213  00000+0  20611-2 0  9994",
    "TLE_LINE2": "2 63056  42.9998   9.7245 0001299 307.6391  52.4359 15.70867149 42585",
    "COMMENT": "Grouped by shell and plane from TLE"
  },
  {
    "OBJECT_NAME": "STARLINK-11406 [DTC]",
    "OBJECT_ID": "25035F",
    "EPOCH": "2025-11-11T04:24:34.751520",
    "MEAN_MOTION": 15.71080385,
    "ECCENTRICITY": 0.0002689,
    "INCLINATION": 42.9992,
    "RA_OF_ASC_NODE": 9.5946,
    "ARG_OF_PERICENTER": 240.499,
    "MEAN_ANOMALY": 119.561,
    "EPHEMERIS_TYPE": 0,
    "CLASSIFICATION_TYPE": "U",
    "NORAD_CAT_ID": 63057,
    "ELEMENT_SET_NO": 999,
    "REV_AT_EPOCH": 4246,
    "BSTAR": 0.0035339,
    "MEAN_MOTION_DOT": 0.00485367,
    "MEAN_MOTION_DDOT": 0.0,
    "TLE_LINE1": "1 63057U 25035F   25315.18373555  .00485367  00000+0  35339-2 0  9996",
    "TLE_LINE2": "2 63057  42.9992   9.5946 0002689 240.4990 119.5610 15.71080385 42461",
    "COMMENT": "Grouped by shell and plane from TLE"
  },
  {
    "OBJECT_NAME": "STARLINK-11418 [DTC]",
    "OBJECT_ID": "25035G",
    "EPOCH": "2025-11-11T06:42:00.769248",
    "MEAN_MOTION": 15.70891076,
    "ECCENTRICITY": 0.000109,
    "INCLINATION": 42.9987,
    "RA_OF_ASC_NODE": 9.4683,
    "ARG_OF_PERICENTER": 234.071,
    "MEAN_ANOMALY": 126.0056,
    "EPHEMERIS_TYPE": 0,
    "CLASSIFICATION_TYPE": "U",
    "NORAD_CAT_ID": 63058,
    "ELEMENT_SET_NO": 999,
    "REV_AT_EPOCH": 4247,
    "BSTAR": 0.0012906,
    "MEAN_MOTION_DOT": 0.00168927,
    "MEAN_MOTION_DDOT": 0.0,
    "TLE_LINE1": "1 63058U 25035G   25315.27917557  .00168927  00000+0  12906-2 0  9998",
    "TLE_LINE2": "2 63058  42.9987   9.4683 0001090 234.0710 126.0056 15.70891076 42471",
    "COMMENT": "Grouped by shell and plane from TLE"
  },
  {
    "OBJECT_NAME": "STARLINK-11509 [DTC]",
    "OBJECT_ID": "25035H",
    "EPOCH": "2025-11-11T06:26:43.298880",
    "MEAN_MOTION": 15.70863816,
    "ECCENTRICITY": 0.0002692,
    "INCLINATION": 43.0,
    "RA_OF_ASC_NODE": 9.3819,
    "ARG_OF_PERICENTER": 295.0863,
    "MEAN_ANOMALY": 64.9725,
    "EPHEMERIS_TYPE": 0,
    "CLASSIFICATION_TYPE": "U",
    "NORAD_CAT_ID": 63059,
    "ELEMENT_SET_NO": 999,
    "REV_AT_EPOCH": 4247,
    "BSTAR": 0.0023075,
    "MEAN_MOTION_DOT": 0.00307163,
    "MEAN_MOTION_DDOT": 0.0,
    "TLE_LINE1": "1 63059U 25035H   25315.26855670  .00307163  00000+0  23075-2 0  9991",
    "TLE_LINE2": "2 63059  43.0000   9.3819 0002692 295.0863  64.9725 15.70863816 42479",
    "COMMENT": "Grouped by shell and plane from TLE"
  },
  {
    "OBJECT_NAME": "STARLINK-11403 [DTC]",
    "OBJECT_ID": "25035J",
    "EPOCH": "2025-11-11T04:39:52.362720",
    "MEAN_MOTION": 15.71062031,
    "ECCENTRICITY": 0.0001949,
    "INCLINATION": 43.0005,
    "RA_OF_ASC_NODE": 9.6791,
    "ARG_OF_PERICENTER": 256.6563,
    "MEAN_ANOMALY": 103.4088,
    "EPHEMERIS_TYPE": 0,
    "CLASSIFICATION_TYPE": "U",
    "NORAD_CAT_ID": 63060,
    "ELEMENT_SET_NO": 999,
    "REV_AT_EPOCH": 4258,
    "BSTAR": 0.0028962,
    "MEAN_MOTION_DOT": 0.00392929,
    "MEAN_MOTION_DDOT": 0.0,
    "TLE_LINE1": "1 63060U 25035J   25315.19435605  .00392929  00000+0  28962-2 0  9991",
    "TLE_LINE2": "2 63060  43.0005   9.6791 0001949 256.6563 103.4088 15.71062031 42586",
    "COMMENT": "Grouped by shell and plane from TLE"
  }
]